[{"OBJECT_NAME":"STARLINK-2452","OBJECT_ID":"2021-027Z","EPOCH":"2026-03-09T12:48:10.167264","MEAN_MOTION":15.30217566,"ECCENTRICITY":0.00013478,"INCLINATION":53.1595,"RA_OF_ASC_NODE":155.6625,"ARG_OF_PERICENTER":95.7701,"MEAN_ANOMALY":264.3453,"EPHEMERIS_TYPE":0,"CLASSIFICATION_TYPE":"U","NORAD_CAT_ID":48115,"ELEMENT_SET_NO":999,"REV_AT_EPOCH":27262,"BSTAR":0.00032089207,"MEAN_MOTION_DOT":9.162e-5,"MEAN_MOTION_DDOT":0},{"OBJECT_NAME":"TEVEL2-4","OBJECT_ID":"2025-052D","EPOCH":"2026-03-09T16:39:37.129536","MEAN_MOTION":15.30925813,"ECCENTRICITY":0.0004733,"INCLINATION":97.4009,"RA_OF_ASC_NODE":325.1237,"ARG_OF_PERICENTER":95.3468,"MEAN_ANOMALY":264.8313,"EPHEMERIS_TYPE":0,"CLASSIFICATION_TYPE":"U","NORAD_CAT_ID":63213,"ELEMENT_SET_NO":999,"REV_AT_EPOCH":5487,"BSTAR":0.00070362503,"MEAN_MOTION_DOT":0.0002099,"MEAN_MOTION_DDOT":0}]
