STARLINK-2452           
1 48115U 21027Z   26068.53345101  .00009162  00000+0  32089-3 0  9997
2 48115  53.1595 155.6625 0001347  95.7701 264.3453 15.30217566272625
TEVEL2-4                
1 63213U 25052D   26068.69417973  .00020990  00000+0  70363-3 0  9998
2 63213  97.4009 325.1237 0004733  95.3468 264.8313 15.30925813 54879
